NORAD_CAT_ID,OBJECT_NAME,OBJECT_TYPE,EPOCH,MEAN_MOTION,ECCENTRICITY,INCLINATION,RA_OF_ASC_NODE,ARG_OF_PERICENTER,MEAN_ANOMALY,BSTAR,MEAN_MOTION_DOT,MEAN_MOTION_DDOT,TLE_LINE0,TLE_LINE1,TLE_LINE2,SEMIMAJOR_AXIS,PERIOD,APOGEE,PERIGEE,DECAYED
53573.0,STARLINK-4547,PAYLOAD,2022-10-15 14:00:01,15.73258939,0.0003043999999999,53.2118,233.649,10.4917,128.8673,-0.0005719,-0.00080348,0.0,0 STARLINK-4547,1 53573U 22101AY  22288.58334491 -.00080348  00000-0 -57190-3 0  9998,2 53573  53.2118 233.6490 0003044  10.4917 128.8673 15.73258939  8965,6727.727,91.53,351.64,347.5440000000001,0.0
53573.0,STARLINK-4547,PAYLOAD,2022-10-15 22:00:01,15.73203857,0.0003285,53.2175,231.9902,20.042,208.1608,1.0826e-05,8.97e-06,0.0,0 STARLINK-4547,1 53573U 22101AY  22288.91668981  .00000897  00000-0  10826-4 0  9994,2 53573  53.2175 231.9902 0003285  20.0420 208.1608 15.73203857  9016,6727.884,91.533,351.959,347.539,0.0
53573.0,STARLINK-4547,PAYLOAD,2022-10-16 14:00:01,15.73160485,0.0002946,53.2121,228.7001,13.1748,32.9636,0.00061606,0.00086601,0.0,0 STARLINK-4547,1 53573U 22101AY  22289.58334491  .00086601  00000-0  61606-3 0  9992,2 53573  53.2121 228.7001 0002946  13.1748  32.9636 15.73160485  1307,6728.0080000000025,91.535,351.855,347.891,0.0
53573.0,STARLINK-4547,PAYLOAD,2022-10-16 22:00:00,15.73249584,0.0002956,53.2128,227.0496,17.023,118.0271,-0.00032335,-0.00045864,0.0,0 STARLINK-4547,1 53573U 22101AY  22289.91667824 -.00045864  00000-0 -32335-3 0  9993,2 53573  53.2128 227.0496 0002956  17.0230 118.0271 15.73249584  1303,6727.754,91.53,351.608,347.63,0.0
53573.0,STARLINK-4547,PAYLOAD,2022-10-17 06:00:00,15.73193951,0.000322,53.2135,225.4007,15.258,208.7279,-0.00026478,-0.00037619,0.0,0 STARLINK-4547,1 53573U 22101AY  22290.25001157 -.00037619  00000-0 -26478-3 0  9993,2 53573  53.2135 225.4007 0003220  15.2580 208.7279 15.73193951  9224,6727.9119999999975,91.534,351.944,347.611,0.0
53573.0,STARLINK-4547,PAYLOAD,2022-10-17 14:00:01,15.73084366,0.0002849,53.2126,223.7495,11.0896,301.7819,0.0014869999999999,0.00212395,0.0,0 STARLINK-4547,1 53573U 22101AY  22290.58334491  .00212395  00000-0  14870-2 0  9995,2 53573  53.2126 223.7495 0002849  11.0896 301.7819 15.73084366  1300,6728.225,91.54,352.00699999999995,348.173,0.0
53573.0,STARLINK-4547,PAYLOAD,2022-10-17 22:00:00,15.73323795,0.0002705,53.212,222.1018,8.5311,33.2447,-0.00073538,-0.0010314,0.0,0 STARLINK-4547,1 53573U 22101AY  22290.91667824 -.00103140  00000-0 -73538-3 0  9997,2 53573  53.2120 222.1018 0002705   8.5311  33.2447 15.73323795  9339,6727.542,91.526,351.227,347.587,0.0
53573.0,STARLINK-4547,PAYLOAD,2022-10-18 06:00:00,15.73327515,0.0003048,53.2142,220.4505,7.9460000000000015,122.8589,-0.0029216999999999,-0.00394364,0.0,0 STARLINK-4547,1 53573U 22101AY  22291.25001157 -.00394364  00000-0 -29217-2 0  9990,2 53573  53.2142 220.4505 0003048   7.9460 122.8589 15.73327515  9385,6727.531999999997,91.526,351.44699999999995,347.346,0.0
53573.0,STARLINK-4547,PAYLOAD,2022-10-18 14:00:01,15.73113405,0.0002793,53.212,218.8021,9.314,210.341,0.00062525,0.00087734,0.0,0 STARLINK-4547,1 53573U 22101AY  22291.58334491  .00087734  00000-0  62525-3 0  9994,2 53573  53.2120 218.8021 0002793   9.3140 210.3410 15.73113405  9435,6728.142,91.538,351.886,348.12800000000016,0.0
53573.0,STARLINK-4547,PAYLOAD,2022-10-18 22:00:00,15.73185732,0.0002776,53.2133,217.1502,9.0447,299.4496,0.00027336,0.00037898,0.0,0 STARLINK-4547,1 53573U 22101AY  22291.91667824  .00037898  00000-0  27336-3 0  9997,2 53573  53.2133 217.1502 0002776   9.0447 299.4496 15.73185732  1305,6727.936,91.534,351.6690000000001,347.93300000000005,0.0
53573.0,STARLINK-4547,PAYLOAD,2022-10-19 06:00:00,15.73355075,0.0002826,53.2149,215.5,350.214,47.184,-0.0036238,-0.00484413,0.0,0 STARLINK-4547,1 53573U 22101AY  22292.25001157 -.00484413  00000-0 -36238-2 0  9997,2 53573  53.2149 215.5000 0002826 350.2140  47.1840 15.73355075  9548,6727.453,91.524,351.219,347.417,0.0
53573.0,STARLINK-4547,PAYLOAD,2022-10-19 14:00:01,15.73059475,0.0003297,53.217,213.8454,299.4996,186.8256,-0.0087896,-0.01099254,0.0,0 STARLINK-4547,1 53573U 22101AY  22292.58334491 -.01099254  00000-0 -87896-2 0  9995,2 53573  53.2170 213.8454 0003297 299.4996 186.8256 15.73059475  1305,6728.295999999999,91.541,352.379,347.9430000000001,0.0
53573.0,STARLINK-4547,PAYLOAD,2022-10-19 22:00:00,15.72266174,0.0005338,53.2175,212.1971,277.8939,296.7014,-0.009408,-0.01134313,0.0,0 STARLINK-4547,1 53573U 22101AY  22292.91667824 -.01134313  00000-0 -94080-2 0  9990,2 53573  53.2175 212.1971 0005338 277.8939 296.7014 15.72266174  1309,6730.559,91.588,356.017,348.831,0.0
53573.0,STARLINK-4547,PAYLOAD,2022-10-20 06:00:00,15.71449423,0.0006584,53.2172,210.5523,272.5339,29.3606,-0.0096866,-0.011294,0.0,0 STARLINK-4547,1 53573U 22101AY  22293.25001157 -.01129400  00000-0 -96866-2 0  9994,2 53573  53.2172 210.5523 0006584 272.5339  29.3606 15.71449423  9697,6732.891,91.635,359.189,350.3230000000001,0.0
53573.0,STARLINK-4547,PAYLOAD,2022-10-20 14:00:01,15.70629631,0.0006502999999999,53.2174,208.9059,269.7875,118.4316,-0.0099268,-0.01118978,0.0,0 STARLINK-4547,1 53573U 22101AY  22293.58334491 -.01118978  00000-0 -99268-2 0  9997,2 53573  53.2174 208.9059 0006503 269.7875 118.4316 15.70629631  1306,6735.233,91.683,361.478,352.718,0.0
53573.0,STARLINK-4547,PAYLOAD,2022-10-20 22:00:00,15.69832635,0.0003028,53.2176,207.2645,272.1675,201.3888,-0.010567,-0.01146011,0.0,0 STARLINK-4547,1 53573U 22101AY  22293.91667824 -.01146011  00000-0 -10567-1 0  9996,2 53573  53.2176 207.2645 0003028 272.1675 201.3888 15.69832635  1300,6737.513000000001,91.73,361.418,357.338,0.0
53573.0,STARLINK-4547,PAYLOAD,2022-10-21 06:00:00,15.69003976,7.92e-05,53.2172,205.6252,280.8988,277.0282,-0.01068,-0.01120746,0.0,0 STARLINK-4547,1 53573U 22101AY  22294.25001157 -.01120746  00000-0 -10680-1 0  9998,2 53573  53.2172 205.6252 0000792 280.8988 277.0282 15.69003976  9854,6739.885,91.778,362.284,361.216,0.0
53573.0,STARLINK-4547,PAYLOAD,2022-10-21 14:00:01,15.68189138,0.0001756,53.2174,203.9849,25.9856,255.3298,-0.011017,-0.01136672,0.0,0 STARLINK-4547,1 53573U 22101AY  22294.58334491 -.01136672  00000-0 -11017-1 0  9994,2 53573  53.2174 203.9849 0001756  25.9856 255.3298 15.68189138  1304,6742.219,91.826,365.268,362.9,0.0
53573.0,STARLINK-4547,PAYLOAD,2022-10-21 22:00:00,15.67380066,0.0001117,53.2168,202.3499,66.9802,296.7422,-0.011467,-0.01143414,0.0,0 STARLINK-4547,1 53573U 22101AY  22294.91667824 -.01143414  00000-0 -11467-1 0  9991,2 53573  53.2168 202.3499 0001117  66.9802 296.7422 15.67380066  1308,6744.5390000000025,91.873,367.158,365.651,0.0
53573.0,STARLINK-4547,PAYLOAD,2022-10-22 06:00:00,15.66562147,0.0001193999999999,53.2171,200.7161,56.1332,29.0222,-0.011772,-0.01136038,0.0,0 STARLINK-4547,1 53573U 22101AY  22295.25001157 -.01136038  00000-0 -11772-1 0  9993,2 53573  53.2171 200.7161 0001194  56.1332  29.0222 15.66562147 10018,6746.887,91.921,369.557,367.946,0.0
53573.0,STARLINK-4547,PAYLOAD,2022-10-22 14:00:01,15.65747046,0.0001202,53.2172,199.0818,72.0988,93.5125,-0.012144,-0.01134032,0.0,0 STARLINK-4547,1 53573U 22101AY  22295.58334491 -.01134032  00000-0 -12144-1 0  9995,2 53573  53.2172 199.0818 0001202  72.0988  93.5125 15.65747046  1304,6749.228,91.969,371.904,370.282,0.0
53573.0,STARLINK-4547,PAYLOAD,2022-10-22 22:00:00,15.64938367,0.0001192,53.2168,197.453,78.308,166.77599999999995,-0.012626,-0.01140575,0.0,0 STARLINK-4547,1 53573U 22101AY  22295.91667824 -.01140575  00000-0 -12626-1 0  9995,2 53573  53.2168 197.4530 0001192  78.3080 166.7760 15.64938367  1307,6751.553000000001,92.016,374.223,372.61300000000006,0.0
53573.0,STARLINK-4547,PAYLOAD,2022-10-23 14:00:01,15.63305781,0.0001068,53.2174,194.1964,62.7863,338.3202,-0.0133879999999999,-0.01133845,0.0,0 STARLINK-4547,1 53573U 22101AY  22296.58334491 -.01133845  00000-0 -13388-1 0  9998,2 53573  53.2174 194.1964 0001068  62.7863 338.3202 15.63305781 10223,6756.253000000002,92.112,378.839,377.396,0.0
53573.0,STARLINK-4547,PAYLOAD,2022-10-23 22:00:00,15.62506645,0.0001137,53.2169,192.574,79.8188,37.822,-0.014077,-0.01153171,0.0,0 STARLINK-4547,1 53573U 22101AY  22296.91667824 -.01153171  00000-0 -14077-1 0  9994,2 53573  53.2169 192.5740 0001137  79.8188  37.8220 15.62506645  1308,6758.556,92.16,381.19,379.653,0.0
53573.0,STARLINK-4547,PAYLOAD,2022-10-24 06:00:00,15.61692203,0.0001313,53.2162,190.9525,62.0289,131.1762,-0.0145139999999999,-0.01151814,0.0,0 STARLINK-4547,1 53573U 22101AY  22297.25001157 -.01151814  00000-0 -14514-1 0  9991,2 53573  53.2162 190.9525 0001313  62.0289 131.1762 15.61692203 10322,6760.906,92.208,383.658,381.883,0.0
53573.0,STARLINK-4547,PAYLOAD,2022-10-24 14:00:01,15.60864181,0.0001137999999999,53.2173,189.3289,77.9038,189.8968,-0.014704,-0.01131871,0.0,0 STARLINK-4547,1 53573U 22101AY  22297.58334491 -.01131871  00000-0 -14704-1 0  9999,2 53573  53.2173 189.3289 0001138  77.9038 189.8968 15.60864181  1306,6763.297,92.257,385.931,384.392,0.0
53573.0,STARLINK-4547,PAYLOAD,2022-10-24 22:00:00,15.60059689,0.0001008,53.2167,187.7124,90.418,250.986,-0.015354,-0.01144333,0.0,0 STARLINK-4547,1 53573U 22101AY  22297.91667824 -.01144333  00000-0 -15354-1 0  9994,2 53573  53.2167 187.7124 0001008  90.4180 250.9860 15.60059689  1303,6765.621999999999,92.304,388.168,386.805,0.0
53573.0,STARLINK-4547,PAYLOAD,2022-10-25 06:00:00,15.5924277,0.0001064,53.2164,186.0965,63.0604,350.9759,-0.015766,-0.01139275,0.0,0 STARLINK-4547,1 53573U 22101AY  22298.25001157 -.01139275  00000-0 -15766-1 0  9999,2 53573  53.2164 186.0965 0001064  63.0604 350.9759 15.59242770 10484,6767.984,92.353,390.57,389.129,0.0
53573.0,STARLINK-4547,PAYLOAD,2022-10-25 14:00:01,15.58424341,0.0001213,53.2173,184.4791,69.5723,56.1215,-0.016182,-0.01133972,0.0,0 STARLINK-4547,1 53573U 22101AY  22298.58334491 -.01133972  00000-0 -16182-1 0  9996,2 53573  53.2173 184.4791 0001213  69.5723  56.1215 15.58424341  1300,6770.354,92.401,393.04,391.397,0.0
